BEIDOU-2 IGSO-1 (C06)   
1 36828U 10036A   25319.51552984 -.00000044  00000+0  00000+0 0  9993
2 36828  54.2794 164.8948 0050831 215.9297 326.8706  1.00284412 55950
BEIDOU-2 G4 (C04)       
1 37210U 10057A   25324.83468708 -.00000090  00000+0  00000+0 0  9994
2 37210   3.1281  70.0024 0010262 184.9290 265.7098  1.00273049 55202
BEIDOU-2 IGSO-2 (C07)   
1 37256U 10068A   25323.81066801 -.00000218  00000+0  00000+0 0  9993
2 37256  47.9309 274.4330 0049685 216.9575 325.8733  1.00294299 54698
BEIDOU-2 IGSO-3 (C08)   
1 37384U 11013A   25324.66079345 -.00000193  00000+0  00000+0 0  9999
2 37384  62.1137  42.1290 0036155 185.5189 177.9716  1.00276463 53579
BEIDOU-2 IGSO-4 (C09)   
1 37763U 11038A   25324.53613866  .00000059  00000+0  00000+0 0  9995
2 37763  54.5550 167.5468 0148422 230.1364 308.6823  1.00286768 52554
BEIDOU-2 IGSO-5 (C10)   
1 37948U 11073A   25322.83411807 -.00000198  00000+0  00000+0 0  9996
2 37948  48.0657 274.1509 0108190 222.1944 314.3029  1.00252576 51022
BEIDOU-2 G5 (C05)       
1 38091U 12008A   25324.87505581  .00000078  00000+0  00000+0 0  9990
2 38091   3.0526  70.7782 0011447 224.9369 138.1807  1.00269838 50282
BEIDOU-2 M3 (C11)       
1 38250U 12018A   25323.77496987 -.00000075  00000+0  00000+0 0  9993
2 38250  55.9396 311.9296 0024692 272.3082  87.4041  1.86229979 92047
BEIDOU-2 M4 (C12)       
1 38251U 12018B   25323.17003477 -.00000078  00000+0  00000+0 0  9999
2 38251  55.8416 311.1807 0015816 274.5889  85.2256  1.86229683 92032
BEIDOU-2 M6 (C14)       
1 38775U 12050B   25323.41801706 -.00000061  00000+0  00000+0 0  9996
2 38775  56.3588  69.8413 0010611 348.6953  11.2652  1.86230950 89407
BEIDOU-2 G6 (C02)       
1 38953U 12059A   25324.96234784 -.00000155  00000+0  00000+0 0  9994
2 38953   3.8917  75.7169 0007034 296.1980 118.7775  1.00274375 47828
BEIDOU-3S IGSO-1S (C31) 
1 40549U 15019A   25297.52891953 -.00000131  00000+0  00000+0 0  9999
2 40549  49.6453 298.3029 0040504 197.6198 177.4401  1.00251575 38711
BEIDOU-3S M2S (C58)     
1 40748U 15037A   25324.44902672 -.00000072  00000+0  00000+0 0  9997
2 40748  55.0585 309.2290 0012702 265.1707  94.6753  1.86229344 70233
BEIDOU-3S M1S (C57)     
1 40749U 15037B   25323.07149162 -.00000079  00000+0  00000+0 0  9990
2 40749  55.0563 309.2660 0003197 353.5611   6.4277  1.86254053 70210
BEIDOU-3S IGSO-2S (C56) 
1 40938U 15053A   25324.76541214 -.00000147  00000+0  00000+0 0  9995
2 40938  49.5479 261.2671 0060838 189.3600 341.1084  1.00275522 37264
BEIDOU-2 IGSO-6 (C13)   
1 41434U 16021A   25324.71299479 -.00000152  00000+0  00000+0 0  9997
2 41434  59.9338  40.1213 0059169 230.5287 138.7356  1.00259323 35391
BEIDOU-2 G7 (C03)       
1 41586U 16037A   25324.82489367 -.00000332  00000+0  00000+0 0  9991
2 41586   1.7015  67.5325 0005254 332.9365  67.1390  1.00269445  4804
BEIDOU-3 M1 (C19)       
1 43001U 17069A   25323.72047634 -.00000059  00000+0  00000+0 0  9992
2 43001  56.5074  69.9948 0008265 303.8479  56.0585  1.86231263 54704
BEIDOU-3 M2 (C20)       
1 43002U 17069B   25324.19576456 -.00000055  00000+0  00000+0 0  9990
2 43002  56.5070  70.0151 0005826 335.7055  24.2536  1.86230858 54706
BEIDOU-3 M7 (C27)       
1 43107U 18003A   25322.32830200 -.00000082  00000+0  00000+0 0  9998
2 43107  54.5185 309.6637 0002389  75.5772 284.4444  1.86232569 53420
BEIDOU-3 M8 (C28)       
1 43108U 18003B   25321.73605669 -.00000083  00000+0  00000+0 0  9993
2 43108  54.5118 309.6672 0004940 270.1001  89.8395  1.86231039 53422
BEIDOU-3 M4 (C22)       
1 43207U 18018A   25322.17785067 -.00000065  00000+0  00000+0 0  9999
2 43207  56.4655  70.1168 0004026  22.9766 337.0231  1.86231167 52816
BEIDOU-3 M3 (C21)       
1 43208U 18018B   25323.31830237 -.00000061  00000+0  00000+0 0  9993
2 43208  56.4656  70.0834 0005729 319.1825  40.7583  1.86231348 52836
BEIDOU-3 M9 (C29)       
1 43245U 18029A   25322.99730738 -.00000080  00000+0  00000+0 0  9995
2 43245  54.3875 307.2958 0001856 267.9159  92.0533  1.86228428 51981
BEIDOU-3 M10 (C30)      
1 43246U 18029B   25322.93267256 -.00000080  00000+0  00000+0 0  9990
2 43246  54.3849 307.3254 0003718 356.8023   3.1859  1.86229179 51966
BEIDOU-2 IGSO-7 (C16)   
1 43539U 18057A   25323.96952420 -.00000029  00000+0  00000+0 0  9997
2 43539  55.1717 164.8714 0091980 235.2833 120.1166  1.00264285 27022
BEIDOU-3 M5 (C23)       
1 43581U 18062A   25321.54662940  .00000072  00000+0  00000+0 0  9994
2 43581  54.0888 189.5008 0002395 341.0049  19.0861  1.86228890 49694
BEIDOU-3 M6 (C24)       
1 43582U 18062B   25323.02070951  .00000079  00000+0  00000+0 0  9992
2 43582  54.0887 189.4399 0007592  43.1030 317.0614  1.86229955 49724
BEIDOU-3 M12 (C26)      
1 43602U 18067A   25321.88435323  .00000077  00000+0  00000+0 0  9998
2 43602  54.1830 188.2070 0009026  39.0032 321.1635  1.86227747 49185
BEIDOU-3 M11 (C25)      
1 43603U 18067B   25324.16664517  .00000080  00000+0  00000+0 0  9996
2 43603  54.1803 188.0936 0005503  34.2168 325.9245  1.86227269 49254
BEIDOU-3 M13 (C32)      
1 43622U 18072A   25324.66020191 -.00000052  00000+0  00000+0 0  9992
2 43622  56.4403  69.5516 0005130 299.5181  60.4198  1.86231020 48774
BEIDOU-3 M14 (C33)      
1 43623U 18072B   25321.84088571 -.00000066  00000+0  00000+0 0  9991
2 43623  56.4397  69.6387 0002680 345.7264  14.2481  1.86230982 48719
BEIDOU-3 M16 (C35)      
1 43647U 18078A   25322.53603221 -.00000082  00000+0  00000+0 0  9993
2 43647  54.2841 307.3673 0006682  17.5691 342.4454  1.86232408 48237
BEIDOU-3 M15 (C34)      
1 43648U 18078B   25323.20218051 -.00000079  00000+0  00000+0 0  9998
2 43648  54.2793 307.3450 0003306  15.7826 344.2180  1.86232311 48269
BEIDOU-3 G1 (C59)       
1 43683U 18085A   25324.83070037 -.00000255  00000+0  00000+0 0  9991
2 43683   2.5506 103.6645 0001931  47.9679 347.6100  1.00269330 25973
BEIDOU-3 M17 (C36)      
1 43706U 18093A   25322.70361942  .00000079  00000+0  00000+0 0  9991
2 43706  54.1724 189.4382 0006724 305.4181 334.2726  1.86228502 47610
BEIDOU-3 M18 (C37)      
1 43707U 18093B   25322.14779546  .00000076  00000+0  00000+0 0  9990
2 43707  54.1733 189.4489 0006573 347.8267  12.2598  1.86226781 47602
BEIDOU-3 IGSO-1 (C38)   
1 44204U 19023A   25323.59378135 -.00000226  00000+0  00000+0 0  9994
2 44204  58.4003  39.8168 0026966 221.2202 126.9723  1.00252177  5102
BEIDOU-2 G8 (C01)       
1 44231U 19027A   25324.83165373 -.00000225  00000+0  00000+0 0  9993
2 44231   1.6042  74.6551 0007624 257.8648 171.5000  1.00275140 23993
BEIDOU-3 IGSO-2 (C39)   
1 44337U 19035A   25322.28933273 -.00000031  00000+0  00000+0 0  9993
2 44337  55.2197 160.7170 0037270 202.1089 278.3228  1.00279154 23551
BEIDOU-3 M24 (C46)      
1 44542U 19061A   25323.29310331  .00000080  00000+0  00000+0 0  9999
2 44542  54.4002 189.8078 0009502  21.4119 338.7334  1.86229445 41884
BEIDOU-3 M23 (C45)      
1 44543U 19061B   25322.07769649  .00000076  00000+0  00000+0 0  9990
2 44543  54.3984 189.8171 0006036  17.5205 160.5858  1.86229698 41868
BEIDOU-3 IGSO-3 (C40)   
1 44709U 19073A   25323.30206580 -.00000211  00000+0  00000+0 0  9996
2 44709  55.1648 283.1698 0044554 191.6201 168.2015  1.00250409 22350
BEIDOU-3 M22 (C44)      
1 44793U 19078A   25322.59640128 -.00000082  00000+0  00000+0 0  9990
2 44793  54.1305 307.2333 0005351  21.9165 338.0975  1.86232149 40720
BEIDOU-3 M21 (C43)      
1 44794U 19078B   25322.19656265 -.00000083  00000+0  00000+0 0  9997
2 44794  54.1039 307.2128 0003591   8.1604 351.8373  1.86227818 40728
BEIDOU-3 M19 (C41)      
1 44864U 19090A   25324.52897045 -.00000053  00000+0  00000+0 0  9998
2 44864  56.3743  69.6985 0017104 284.2653  35.0290  1.86231573 40348
BEIDOU-3 M20 (C42)      
1 44865U 19090B   25321.34809936 -.00000065  00000+0  00000+0 0  9991
2 44865  56.3736  69.8376 0014104 297.7158 138.5807  1.86231498 40274
BEIDOU-3 G2 (C60)       
1 45344U 20017A   25324.87536993 -.00000121  00000+0  00000+0 0  9999
2 45344   2.9589  43.3428 0003931 266.9674 145.0286  1.00272822 21176
BEIDOU-3 G3 (C61)       
1 45807U 20040A   25324.25414250 -.00000333  00000+0  00000+0 0  9997
2 45807   1.9348  66.3861 0004892 313.5823 241.6061  1.00274923 19973
BEIDOU-3 G4 (C62)       
1 56564U 23066A   25324.83468708 -.00000089  00000+0  00000+0 0  9999
2 56564   0.8650 300.2690 0003785 225.8574 354.5281  1.00272665  9302
BEIDOU-3 M28 (C50)      
1 58654U 23207A   25323.88580427 -.00000060  00000+0  00000+0 0  9994
2 58654  55.5648  69.3753 0001539 256.9132 103.0559  1.86229828 12947
BEIDOU-3 M26 (C48)      
1 58655U 23207B   25324.75754212 -.00000053  00000+0  00000+0 0  9999
2 58655  55.5678  69.3320 0003058 244.6070 115.3509  1.86231365 12944
BEIDOU-3 M25 (C47)      
1 61186U 24168B   25324.78151572 -.00000071  00000+0  00000+0 0  9992
2 61186  54.6617 309.4812 0005559 291.8721 201.1369  1.86230330  7908
BEIDOU-3 M27 (C49)      
1 61187U 24168C   25322.44836561 -.00000082  00000+0  00000+0 0  9994
2 61187  54.6590 309.5453 0002166 323.9134 179.7707  1.86230437  5336
